[{"OBJECT_NAME":"HULIANWANG DIGUI-66","OBJECT_ID":"2025-174J","EPOCH":"2026-03-09T23:21:38.962368","MEAN_MOTION":13.24422306,"ECCENTRICITY":0.00013271,"INCLINATION":86.4871,"RA_OF_ASC_NODE":285.4849,"ARG_OF_PERICENTER":94.187,"MEAN_ANOMALY":265.9416,"EPHEMERIS_TYPE":0,"CLASSIFICATION_TYPE":"U","NORAD_CAT_ID":65172,"ELEMENT_SET_NO":999,"REV_AT_EPOCH":2765,"BSTAR":3.7687903e-5,"MEAN_MOTION_DOT":3.1e-7,"MEAN_MOTION_DDOT":0},{"OBJECT_NAME":"SL-14 DEB","OBJECT_ID":"1991-056AU","EPOCH":"2026-03-09T17:33:48.396096","MEAN_MOTION":13.49822658,"ECCENTRICITY":0.01287487,"INCLINATION":82.6064,"RA_OF_ASC_NODE":160.9239,"ARG_OF_PERICENTER":120.5725,"MEAN_ANOMALY":240.8193,"EPHEMERIS_TYPE":0,"CLASSIFICATION_TYPE":"U","NORAD_CAT_ID":45306,"ELEMENT_SET_NO":999,"REV_AT_EPOCH":29680,"BSTAR":-0.0026733662,"MEAN_MOTION_DOT":-1.768e-5,"MEAN_MOTION_DDOT":0}]
